GONETS-M 14             
1 44905U 19096A   26156.29543532  .00000002  00000+0 -56521-4 0  9995
2 44905  82.5234  92.0129 0012983 173.8614 186.2627 12.42869196292209
GONETS-M 15             
1 44906U 19096B   26156.24434939  .00000016  00000+0  44222-4 0  9990
2 44906  82.5254  92.5040 0014406 198.2940 161.7624 12.42870806292164
GONETS-M 16             
1 44907U 19096C   26156.27076975  .00000093  00000+0  59963-3 0  9998
2 44907  82.5200  91.4458 0009616 243.4113 116.5982 12.42891435292154
RS-44 & BREEZE-KM R/B   
1 44909U 19096E   26156.27794952  .00000008  00000+0 -15917-4 0  9991
2 44909  82.5219 347.6205 0217639 171.9532 188.5155 12.79748569300822
SHIJIAN-20 (SJ-20)      
1 44910U 19097A   26156.11711499  .00000147  00000+0  00000+0 0  9997
2 44910   4.8878  75.2106 0013784  51.8397 213.4147  1.00273812 23575
STARLINK-1114           
1 44927U 20001P   26156.24622019  .00041235  00000+0  41556-3 0  9993
2 44927  53.0409 264.1656 0003633 351.9816   8.1140 15.64994665353748
STARLINK-1123           
1 44930U 20001S   26156.27325963  .00082097  00000+0  10850-2 0  9991
2 44930  53.1443 290.8583 0005151 299.7130  60.3369 15.57653474353386
STARLINK-1094           
1 44941U 20001AD  26156.29023067  .00039045  00000+0  59239-3 0  9995
2 44941  53.1528 265.7234 0005958 327.7373  32.3273 15.54231046353749
STARLINK-1122           
1 44949U 20001AM  26154.95040979  .00080958  00000+0  12392-2 0  9992
2 44949  53.1553 272.7794 0004877 321.2606  38.8055 15.53675611353525
STARLINK-1080           
1 44961U 20001AZ  26154.47295889  .00050813  00000+0  46695-3 0  9996
2 44961  53.0448 233.3228 0002294  29.0113 331.1030 15.67211313354021
STARLINK-1090           
1 44968U 20001BG  26156.28161842  .00061501  00000+0  10714-2 0  9993
2 44968  53.1487 254.0275 0004228 335.7280  24.3529 15.50183039353900
TJS-5                   
1 44978U 20002A   26156.01411779 -.00000330  00000+0  00000+0 0  9991
2 44978   0.0413 282.2205 0007652 124.3703 319.4495  1.00272080 23586
JILIN-1 KUANFU 01       
1 45016U 20003A   26156.29671272  .00003480  00000+0  21403-3 0  9994
2 45016  97.5027 230.4844 0009295 352.7402   7.3692 15.10655336353532
YINHE-1                 
1 45024U 20004A   26156.22944485  .00000997  00000+0  13088-3 0  9996
2 45024  86.3932 120.9094 0015587  48.4602 311.7953 14.79120923344157
GSAT-30                 
1 45026U 20005A   26156.15185188 -.00000152  00000+0  00000+0 0  9998
2 45026   0.0476 109.6004 0003600 332.4369 309.2264  1.00270567 23385
EUTELSAT KONNECT        
1 45027U 20005B   26155.63782186  .00000062  00000+0  00000+0 0  9991
2 45027   0.0728  98.8400 0000896 126.3177 264.7734  1.00271610 24216
STARLINK-1132           
1 45044U 20006A   26154.33728882  .00064435  00000+0  94649-3 0  9990
2 45044  53.1492 204.5294 0001971  27.5077 332.6038 15.54913188350205
STARLINK-1131           
1 45047U 20006D   26154.47101939  .00072094  00000+0  11851-2 0  9999
2 45047  53.1560 236.6250 0004814 347.8154  12.2739 15.51745445349769
STARLINK-1134           
1 45048U 20006E   26156.32941709  .00108831  00000+0  14321-2 0  9997
2 45048  53.0251 177.6973 0008326  49.2182 310.9550 15.57614737350731
STARLINK-1156           
1 45054U 20006L   26154.50262931  .00045968  00000+0  13503-2 0  9997
2 45054  53.1580 241.5506 0004134 340.1106  19.9735 15.34695800349698
STARLINK-1166           
1 45060U 20006S   26156.27261403  .00076838  00000+0  96349-3 0  9993
2 45060  53.0446 211.0097 0005696 357.6076   2.4907 15.59074498350269
STARLINK-1169           
1 45061U 20006T   26154.54622861  .00048376  00000+0  12810-2 0  9997
2 45061  53.1540 240.0286 0004902 314.8720  45.1885 15.37904890349720
STARLINK-1171           
1 45062U 20006U   26155.23068326  .00066591  00000+0  46223-3 0  9990
2 45062  53.0386 182.3726 0003275 353.7340   6.3637 15.73834288350579
STARLINK-1133           
1 45064U 20006W   26154.47367594  .00044531  00000+0  13097-2 0  9998
2 45064  53.1551 218.4613 0005065 355.5522   4.5434 15.34668290350023
STARLINK-1167           
1 45071U 20006AD  26154.48308353  .00046102  00000+0  12566-2 0  9991
2 45071  53.1553 217.5577 0003620 320.5298  39.5441 15.37036048350039
STARLINK-1168           
1 45072U 20006AE  26154.45378379  .00044224  00000+0  12955-2 0  9999
2 45072  53.1564 218.7555 0004269 355.7919   4.3047 15.34800620350013
STARLINK-1172           
1 45074U 20006AG  26153.33876924  .00053968  00000+0  14252-2 0  9993
2 45074  53.1535 222.3047 0003858 322.9679  37.1058 15.37945295349860
STARLINK-1153           
1 45080U 20006AN  26154.46642577  .00045523  00000+0  12414-2 0  9996
2 45080  53.1549 217.5534 0004756 322.8426  37.2248 15.37022991350038
STARLINK-1151           
1 45081U 20006AP  26156.33336806  .01284366  00000+0  60808-2 0  9991
2 45081  53.0477 165.6311 0001895  82.2365 206.3567 15.79985074  6008
STARLINK-1185           
1 45087U 20006AV  26154.43709702  .00061056  00000+0  12527-2 0  9998
2 45087  53.1562 198.0663 0005644   0.7548 359.3467 15.45468281350306
