OBJECT_NAME,OBJECT_ID,EPOCH,MEAN_MOTION,ECCENTRICITY,INCLINATION,RA_OF_ASC_NODE,ARG_OF_PERICENTER,MEAN_ANOMALY,EPHEMERIS_TYPE,CLASSIFICATION_TYPE,NORAD_CAT_ID,ELEMENT_SET_NO,REV_AT_EPOCH,BSTAR,MEAN_MOTION_DOT,MEAN_MOTION_DDOT
GONETS-M 14,2019-096A,2026-06-05T07:05:25.611648,12.42869196,.00129837,82.5234,92.0129,173.8614,186.2627,0,U,44905,999,29220,-.5652108E-4,.2E-7,0
GONETS-M 15,2019-096B,2026-06-05T05:51:51.787296,12.42870806,.00144069,82.5254,92.5040,198.2940,161.7624,0,U,44906,999,29216,.44221888E-4,.16E-6,0
GONETS-M 16,2019-096C,2026-06-05T06:29:54.506400,12.42891435,.0009616,82.5200,91.4458,243.4113,116.5982,0,U,44907,999,29215,.59963303E-3,.93E-6,0
RS-44 & BREEZE-KM R/B,2019-096E,2026-06-05T06:40:14.838528,12.79748569,.02176399,82.5219,347.6205,171.9532,188.5155,0,U,44909,999,30082,-.15916986E-4,.8E-7,0
SHIJIAN-20 (SJ-20),2019-097A,2026-06-05T02:48:38.735136,1.00273812,.0013784,4.8878,75.2106,51.8397,213.4147,0,U,44910,999,2357,0,.147E-5,0
STARLINK-1114,2020-001P,2026-06-05T05:54:33.424416,15.64994665,.00036339,53.0409,264.1656,351.9816,8.1140,0,U,44927,999,35374,.41556251E-3,.41235E-3,0
STARLINK-1123,2020-001S,2026-06-05T06:33:29.632032,15.57653474,.00051519,53.1443,290.8583,299.7130,60.3369,0,U,44930,999,35338,.10850229E-2,.82097E-3,0
STARLINK-1094,2020-001AD,2026-06-05T06:57:55.929888,15.54231046,.00059584,53.1528,265.7234,327.7373,32.3273,0,U,44941,999,35374,.59238721E-3,.39045E-3,0
STARLINK-1122,2020-001AM,2026-06-03T22:48:35.405856,15.53675611,.00048774,53.1553,272.7794,321.2606,38.8055,0,U,44949,999,35352,.12391718E-2,.80958E-3,0
STARLINK-1080,2020-001AZ,2026-06-03T11:21:03.648096,15.67211313,.00022941,53.0448,233.3228,29.0113,331.1030,0,U,44961,999,35402,.46695193E-3,.50813E-3,0
STARLINK-1090,2020-001BG,2026-06-05T06:45:31.831488,15.50183039,.00042282,53.1487,254.0275,335.7280,24.3529,0,U,44968,999,35390,.10713874E-2,.61501E-3,0
TJS-5,2020-002A,2026-06-05T00:20:19.777056,1.00272080,.0007652,0.0413,282.2205,124.3703,319.4495,0,U,44978,999,2358,0,-.33E-5,0
JILIN-1 KUANFU 01,2020-003A,2026-06-05T07:07:15.979008,15.10655336,.00092952,97.5027,230.4844,352.7402,7.3692,0,U,45016,999,35353,.21402613E-3,.348E-4,0
YINHE-1,2020-004A,2026-06-05T05:30:24.035040,14.79120923,.00155878,86.3932,120.9094,48.4602,311.7953,0,U,45024,999,34415,.13087873E-3,.997E-5,0
GSAT-30,2020-005A,2026-06-05T03:38:40.002432,1.00270567,.00036006,0.0476,109.6004,332.4369,309.2264,0,U,45026,999,2338,0,-.152E-5,0
EUTELSAT KONNECT,2020-005B,2026-06-04T15:18:27.808704,1.00271610,.00008963,0.0728,98.8400,126.3177,264.7734,0,U,45027,999,2421,0,.62E-6,0
STARLINK-1132,2020-006A,2026-06-03T08:05:41.754048,15.54913188,.00019715,53.1492,204.5294,27.5077,332.6038,0,U,45044,999,35020,.94649053E-3,.64435E-3,0
STARLINK-1131,2020-006D,2026-06-03T11:18:16.075296,15.51745445,.00048146,53.1560,236.6250,347.8154,12.2739,0,U,45047,999,34976,.1185108E-2,.72094E-3,0
STARLINK-1134,2020-006E,2026-06-05T07:54:21.636576,15.57614737,.00083267,53.0251,177.6973,49.2182,310.9550,0,U,45048,999,35073,.14321085E-2,.108831E-2,0
STARLINK-1156,2020-006L,2026-06-03T12:03:47.172384,15.34695800,.0004134,53.1580,241.5506,340.1106,19.9735,0,U,45054,999,34969,.13503E-2,.45968E-3,0
STARLINK-1166,2020-006S,2026-06-05T06:32:33.852192,15.59074498,.00056961,53.0446,211.0097,357.6076,2.4907,0,U,45060,999,35026,.96349142E-3,.76838E-3,0
STARLINK-1169,2020-006T,2026-06-03T13:06:34.151904,15.37904890,.00049025,53.1540,240.0286,314.8720,45.1885,0,U,45061,999,34972,.1281006E-2,.48376E-3,0
STARLINK-1171,2020-006U,2026-06-04T05:32:11.033664,15.73834288,.00032755,53.0386,182.3726,353.7340,6.3637,0,U,45062,999,35057,.46223443E-3,.66591E-3,0
STARLINK-1133,2020-006W,2026-06-03T11:22:05.601216,15.34668290,.00050655,53.1551,218.4613,355.5522,4.5434,0,U,45064,999,35002,.13097224E-2,.44531E-3,0
STARLINK-1167,2020-006AD,2026-06-03T11:35:38.416992,15.37036048,.00036201,53.1553,217.5577,320.5298,39.5441,0,U,45071,999,35003,.1256638E-2,.46102E-3,0
STARLINK-1168,2020-006AE,2026-06-03T10:53:26.919456,15.34800620,.00042691,53.1564,218.7555,355.7919,4.3047,0,U,45072,999,35001,.1295499E-2,.44224E-3,0
STARLINK-1172,2020-006AG,2026-06-02T08:07:49.662336,15.37945295,.00038589,53.1535,222.3047,322.9679,37.1058,0,U,45074,999,34986,.14251623E-2,.53968E-3,0
STARLINK-1153,2020-006AN,2026-06-03T11:11:39.186528,15.37022991,.0004756,53.1549,217.5534,322.8426,37.2248,0,U,45080,999,35003,.12414448E-2,.45523E-3,0
STARLINK-1151,2020-006AP,2026-06-05T08:00:03.000384,15.79985074,.00018959,53.0477,165.6311,82.2365,206.3567,0,U,45081,999,600,.60807644E-2,.1284366E-1,0
STARLINK-1185,2020-006AV,2026-06-03T10:29:25.182528,15.45468281,.00056448,53.1562,198.0663,0.7548,359.3467,0,U,45087,999,35030,.1252725E-2,.61056E-3,0
